TIANZHOU-7              
1 58811U 24013A   24035.40769703  .00018194  00000+0  19721-3 0  9998
2 58811  41.4670 180.5156 0008498 299.3080  60.6910 15.63066342158151
CZ-7 DEB                
1 58813U 24013C   24018.11402078 -.00002294  72670-5  00000+0 0  9997
2 58813  41.8298 285.9373 0234014 181.6233 328.2070 15.73710950    93
CZ-7 DEB                
1 58814U 24013D   24018.11444661 -.00002240  70950-5  00000+0 0  9992
2 58814  41.6413 286.0086 0240306 187.1577 323.2676 15.72861586    84
AXIOM-3                 
1 58815U 24014A   24035.71359296  .00013141  00000+0  24197-3 0  9999
2 58815  51.6408 256.7762 0002364 196.3815 272.5298 15.49506484437854
STARLINK-31141          
1 58803U 24012S   24035.91667824 -.01747947  00000+0 -26867-1 0  9990
2 58803  42.9994 151.9299 0001562 276.0356 132.1377 15.56549925  4517
STARLINK-31188          
1 58804U 24012T   24035.91667824 -.01746495  00000+0 -26839-1 0  9997
2 58804  42.9996 151.9322 0001750 278.5178 128.8010 15.56551085  4511
STARLINK-31105          
1 58805U 24012U   24035.91667824 -.01748492  00000+0 -26878-1 0  9990
2 58805  42.9998 151.9280 0001497 276.7120 132.3150 15.56548959  4366
STARLINK-31138          
1 58806U 24012V   24035.91667824 -.01741836  00000+0 -26768-1 0  9994
2 58806  42.9996 151.9264 0001690 280.0614 129.8218 15.56542572  4516
STARLINK-31163          
1 58807U 24012W   24035.91667824 -.01748640  00000+0 -26884-1 0  9994
2 58807  42.9996 151.9235 0001461 276.7726 133.9630 15.56545882  4518
STARLINK-31174          
1 58808U 24012X   24035.91667824 -.01748198  00000+0 -26879-1 0  9997
2 58808  42.9996 151.9211 0001394 277.7453 133.8444 15.56543929  4518
STARLINK-31169          
1 58809U 24012Y   24035.91667824 -.01747860  00000+0 -26874-1 0  9998
2 58809  42.9996 151.9195 0001505 278.2261 134.2184 15.56542070  4519
NANOFF A                
1 58810U 23185T   24029.79184023  .00004237  00000+0  32841-3 0  9998
2 58810  97.6416  98.6894 0013698  49.2557  46.4273 15.01865590  2064
DALIAN-1 LIANLI         
1 58816U 23063C   24029.78296075  .00121385  00000+0  11155-2 0  9997
2 58816  41.4674 214.5252 0011520 239.0941 239.9411 15.66444064  1745
SORAYA                  
1 58817U 24015A   24036.19805524  .00000127  00000+0  71327-4 0  9993
2 58817  64.5134  66.4935 0011313 256.4786 103.5039 14.41909053  2306
