[
  {
    "OBJECT_NAME": "STARLINK-31141",
    "OBJECT_ID": "2024-012S",
    "EPOCH": "2024-02-04T22:00:00.999936",
    "MEAN_MOTION": 15.56549925,
    "ECCENTRICITY": 0.0001562,
    "INCLINATION": 42.9994,
    "RA_OF_ASC_NODE": 151.9299,
    "ARG_OF_PERICENTER": 276.0356,
    "MEAN_ANOMALY": 132.1377,
    "EPHEMERIS_TYPE": 0,
    "CLASSIFICATION_TYPE": "U",
    "NORAD_CAT_ID": 58803,
    "ELEMENT_SET_NO": 999,
    "REV_AT_EPOCH": 451,
    "BSTAR": -0.026867,
    "MEAN_MOTION_DOT": -0.01747947,
    "MEAN_MOTION_DDOT": 0
  },
  {
    "OBJECT_NAME": "STARLINK-31188",
    "OBJECT_ID": "2024-012T",
    "EPOCH": "2024-02-04T22:00:00.999936",
    "MEAN_MOTION": 15.56551085,
    "ECCENTRICITY": 0.000175,
    "INCLINATION": 42.9996,
    "RA_OF_ASC_NODE": 151.9322,
    "ARG_OF_PERICENTER": 278.5178,
    "MEAN_ANOMALY": 128.801,
    "EPHEMERIS_TYPE": 0,
    "CLASSIFICATION_TYPE": "U",
    "NORAD_CAT_ID": 58804,
    "ELEMENT_SET_NO": 999,
    "REV_AT_EPOCH": 451,
    "BSTAR": -0.026839,
    "MEAN_MOTION_DOT": -0.01746495,
    "MEAN_MOTION_DDOT": 0
  },
  {
    "OBJECT_NAME": "STARLINK-31105",
    "OBJECT_ID": "2024-012U",
    "EPOCH": "2024-02-04T22:00:00.999936",
    "MEAN_MOTION": 15.56548959,
    "ECCENTRICITY": 0.0001497,
    "INCLINATION": 42.9998,
    "RA_OF_ASC_NODE": 151.928,
    "ARG_OF_PERICENTER": 276.712,
    "MEAN_ANOMALY": 132.315,
    "EPHEMERIS_TYPE": 0,
    "CLASSIFICATION_TYPE": "U",
    "NORAD_CAT_ID": 58805,
    "ELEMENT_SET_NO": 999,
    "REV_AT_EPOCH": 436,
    "BSTAR": -0.026878,
    "MEAN_MOTION_DOT": -0.01748492,
    "MEAN_MOTION_DDOT": 0
  },
  {
    "OBJECT_NAME": "STARLINK-31138",
    "OBJECT_ID": "2024-012V",
    "EPOCH": "2024-02-04T22:00:00.999936",
    "MEAN_MOTION": 15.56542572,
    "ECCENTRICITY": 0.000169,
    "INCLINATION": 42.9996,
    "RA_OF_ASC_NODE": 151.9264,
    "ARG_OF_PERICENTER": 280.0614,
    "MEAN_ANOMALY": 129.8218,
    "EPHEMERIS_TYPE": 0,
    "CLASSIFICATION_TYPE": "U",
    "NORAD_CAT_ID": 58806,
    "ELEMENT_SET_NO": 999,
    "REV_AT_EPOCH": 451,
    "BSTAR": -0.026768,
    "MEAN_MOTION_DOT": -0.01741836,
    "MEAN_MOTION_DDOT": 0
  },
  {
    "OBJECT_NAME": "STARLINK-31163",
    "OBJECT_ID": "2024-012W",
    "EPOCH": "2024-02-04T22:00:00.999936",
    "MEAN_MOTION": 15.56545882,
    "ECCENTRICITY": 0.0001461,
    "INCLINATION": 42.9996,
    "RA_OF_ASC_NODE": 151.9235,
    "ARG_OF_PERICENTER": 276.7726,
    "MEAN_ANOMALY": 133.963,
    "EPHEMERIS_TYPE": 0,
    "CLASSIFICATION_TYPE": "U",
    "NORAD_CAT_ID": 58807,
    "ELEMENT_SET_NO": 999,
    "REV_AT_EPOCH": 451,
    "BSTAR": -0.026884,
    "MEAN_MOTION_DOT": -0.0174864,
    "MEAN_MOTION_DDOT": 0
  },
  {
    "OBJECT_NAME": "STARLINK-31174",
    "OBJECT_ID": "2024-012X",
    "EPOCH": "2024-02-04T22:00:00.999936",
    "MEAN_MOTION": 15.56543929,
    "ECCENTRICITY": 0.0001394,
    "INCLINATION": 42.9996,
    "RA_OF_ASC_NODE": 151.9211,
    "ARG_OF_PERICENTER": 277.7453,
    "MEAN_ANOMALY": 133.8444,
    "EPHEMERIS_TYPE": 0,
    "CLASSIFICATION_TYPE": "U",
    "NORAD_CAT_ID": 58808,
    "ELEMENT_SET_NO": 999,
    "REV_AT_EPOCH": 451,
    "BSTAR": -0.026879,
    "MEAN_MOTION_DOT": -0.01748198,
    "MEAN_MOTION_DDOT": 0
  },
  {
    "OBJECT_NAME": "STARLINK-31169",
    "OBJECT_ID": "2024-012Y",
    "EPOCH": "2024-02-04T22:00:00.999936",
    "MEAN_MOTION": 15.5654207,
    "ECCENTRICITY": 0.0001505,
    "INCLINATION": 42.9996,
    "RA_OF_ASC_NODE": 151.9195,
    "ARG_OF_PERICENTER": 278.2261,
    "MEAN_ANOMALY": 134.2184,
    "EPHEMERIS_TYPE": 0,
    "CLASSIFICATION_TYPE": "U",
    "NORAD_CAT_ID": 58809,
    "ELEMENT_SET_NO": 999,
    "REV_AT_EPOCH": 451,
    "BSTAR": -0.026874,
    "MEAN_MOTION_DOT": -0.0174786,
    "MEAN_MOTION_DDOT": 0
  },
  {
    "OBJECT_NAME": "NANOFF A",
    "OBJECT_ID": "2023-185T",
    "EPOCH": "2024-01-29T19:00:14.995872",
    "MEAN_MOTION": 15.0186559,
    "ECCENTRICITY": 0.0013698,
    "INCLINATION": 97.6416,
    "RA_OF_ASC_NODE": 98.6894,
    "ARG_OF_PERICENTER": 49.2557,
    "MEAN_ANOMALY": 46.4273,
    "EPHEMERIS_TYPE": 0,
    "CLASSIFICATION_TYPE": "U",
    "NORAD_CAT_ID": 58810,
    "ELEMENT_SET_NO": 999,
    "REV_AT_EPOCH": 206,
    "BSTAR": 0.00032841,
    "MEAN_MOTION_DOT": 4.237e-05,
    "MEAN_MOTION_DDOT": 0
  },
  {
    "OBJECT_NAME": "TIANZHOU-7",
    "OBJECT_ID": "2024-013A",
    "EPOCH": "2024-02-04T09:47:05.023392",
    "MEAN_MOTION": 15.63066342,
    "ECCENTRICITY": 0.0008498,
    "INCLINATION": 41.467,
    "RA_OF_ASC_NODE": 180.5156,
    "ARG_OF_PERICENTER": 299.308,
    "MEAN_ANOMALY": 60.691,
    "EPHEMERIS_TYPE": 0,
    "CLASSIFICATION_TYPE": "U",
    "NORAD_CAT_ID": 58811,
    "ELEMENT_SET_NO": 999,
    "REV_AT_EPOCH": 15815,
    "BSTAR": 0.00019721,
    "MEAN_MOTION_DOT": 0.00018194,
    "MEAN_MOTION_DDOT": 0
  },
  {
    "OBJECT_NAME": "CZ-7 DEB",
    "OBJECT_ID": "2024-013C",
    "EPOCH": "2024-01-18T02:44:11.395392",
    "MEAN_MOTION": 15.7371095,
    "ECCENTRICITY": 0.0234014,
    "INCLINATION": 41.8298,
    "RA_OF_ASC_NODE": 285.9373,
    "ARG_OF_PERICENTER": 181.6233,
    "MEAN_ANOMALY": 328.207,
    "EPHEMERIS_TYPE": 0,
    "CLASSIFICATION_TYPE": "U",
    "NORAD_CAT_ID": 58813,
    "ELEMENT_SET_NO": 999,
    "REV_AT_EPOCH": 9,
    "BSTAR": 0,
    "MEAN_MOTION_DOT": -2.294e-05,
    "MEAN_MOTION_DDOT": 7.267e-06
  },
  {
    "OBJECT_NAME": "CZ-7 DEB",
    "OBJECT_ID": "2024-013D",
    "EPOCH": "2024-01-18T02:44:48.187104",
    "MEAN_MOTION": 15.72861586,
    "ECCENTRICITY": 0.0240306,
    "INCLINATION": 41.6413,
    "RA_OF_ASC_NODE": 286.0086,
    "ARG_OF_PERICENTER": 187.1577,
    "MEAN_ANOMALY": 323.2676,
    "EPHEMERIS_TYPE": 0,
    "CLASSIFICATION_TYPE": "U",
    "NORAD_CAT_ID": 58814,
    "ELEMENT_SET_NO": 999,
    "REV_AT_EPOCH": 8,
    "BSTAR": 0,
    "MEAN_MOTION_DOT": -2.24e-05,
    "MEAN_MOTION_DDOT": 7.095e-06
  },
  {
    "OBJECT_NAME": "AXIOM-3",
    "OBJECT_ID": "2024-014A",
    "EPOCH": "2024-02-04T17:07:34.431744",
    "MEAN_MOTION": 15.49506484,
    "ECCENTRICITY": 0.0002364,
    "INCLINATION": 51.6408,
    "RA_OF_ASC_NODE": 256.7762,
    "ARG_OF_PERICENTER": 196.3815,
    "MEAN_ANOMALY": 272.5298,
    "EPHEMERIS_TYPE": 0,
    "CLASSIFICATION_TYPE": "U",
    "NORAD_CAT_ID": 58815,
    "ELEMENT_SET_NO": 999,
    "REV_AT_EPOCH": 43785,
    "BSTAR": 0.00024197,
    "MEAN_MOTION_DOT": 0.00013141,
    "MEAN_MOTION_DDOT": 0
  },
  {
    "OBJECT_NAME": "DALIAN-1 LIANLI",
    "OBJECT_ID": "2023-063C",
    "EPOCH": "2024-01-29T18:47:27.808800",
    "MEAN_MOTION": 15.66444064,
    "ECCENTRICITY": 0.001152,
    "INCLINATION": 41.4674,
    "RA_OF_ASC_NODE": 214.5252,
    "ARG_OF_PERICENTER": 239.0941,
    "MEAN_ANOMALY": 239.9411,
    "EPHEMERIS_TYPE": 0,
    "CLASSIFICATION_TYPE": "U",
    "NORAD_CAT_ID": 58816,
    "ELEMENT_SET_NO": 999,
    "REV_AT_EPOCH": 174,
    "BSTAR": 0.0011155,
    "MEAN_MOTION_DOT": 0.00121385,
    "MEAN_MOTION_DDOT": 0
  },
  {
    "OBJECT_NAME": "SORAYA",
    "OBJECT_ID": "2024-015A",
    "EPOCH": "2024-02-05T04:45:11.972736",
    "MEAN_MOTION": 14.41909053,
    "ECCENTRICITY": 0.0011313,
    "INCLINATION": 64.5134,
    "RA_OF_ASC_NODE": 66.4935,
    "ARG_OF_PERICENTER": 256.4786,
    "MEAN_ANOMALY": 103.5039,
    "EPHEMERIS_TYPE": 0,
    "CLASSIFICATION_TYPE": "U",
    "NORAD_CAT_ID": 58817,
    "ELEMENT_SET_NO": 999,
    "REV_AT_EPOCH": 230,
    "BSTAR": 7.1327e-05,
    "MEAN_MOTION_DOT": 1.27e-06,
    "MEAN_MOTION_DDOT": 0
  }
]